{"type": "FeatureCollection", "features": [ {"type": "Feature", "properties": {"norad_id": 29868, "name": "FENGYUN 1C DEB", "group": "fengyun-1c-debris", "lat": 13.054027405946458, "lon": -145.98947696170688, "alt_km": 766.2118804172278, "timestamp": "2025-12-12T09:49:09.003272+00:00", "meta": {"OBJECT_NAME": "FENGYUN 1C DEB", "OBJECT_ID": "1999-025FN", "EPOCH": "2025-12-12T02:41:08.059776", "MEAN_MOTION": 14.78411064, "ECCENTRICITY": 0.0196859, "INCLINATION": 97.9505, "RA_OF_ASC_NODE": 31.8599, "ARG_OF_PERICENTER": 6.0844, "MEAN_ANOMALY": 18.896, "EPHEMERIS_TYPE": 0, "CLASSIFICATION_TYPE": "U", "NORAD_CAT_ID": 29868, "ELEMENT_SET_NO": 999, "REV_AT_EPOCH": 286, "BSTAR": 0.0010037, "MEAN_MOTION_DOT": 0.00010082, "MEAN_MOTION_DDOT": 0}, "tle": {"line1": "1 29868U 99025FN  25346.11189884  .00010082  00000+0  10037-2 0  9991", "line2": "2 29868  97.9505  31.8599 0196859   6.0844  18.8960 14.78411064  2869"}}, "geometry": {"type": "Point", "coordinates": [-145.98947696170688, 13.054027405946458]}}, {"type": "Feature", "properties": {"norad_id": 29869, "name": "FENGYUN 1C DEB", "group": "fengyun-1c-debris", "lat": -80.56565543421831, "lon": 26.628197561571266, "alt_km": 792.0915539365333, "timestamp": "2025-12-12T09:49:09.003282+00:00", "meta": {"OBJECT_NAME": "FENGYUN 1C DEB", "OBJECT_ID": "1999-025FP", "EPOCH": "2025-12-11T19:19:23.403072", "MEAN_MOTION": 14.36881129, "ECCENTRICITY": 0.00876974, "INCLINATION": 98.8727, "RA_OF_ASC_NODE": 276.0713, "ARG_OF_PERICENTER": 13.8001, "MEAN_ANOMALY": 11.3829, "EPHEMERIS_TYPE": 0, "CLASSIFICATION_TYPE": "U", "NORAD_CAT_ID": 29869, "ELEMENT_SET_NO": 999, "REV_AT_EPOCH": 98807, "BSTAR": 0.00074703013, "MEAN_MOTION_DOT": 2.261e-05, "MEAN_MOTION_DDOT": 0}, "tle": {"line1": "1 29869U 99025FP  25345.80513198  .00002261  00000+0  74703-3 0  9997", "line2": "2 29869  98.8727 276.0713 0087697  13.8001  11.3829 14.36881129988072"}}, "geometry": {"type": "Point", "coordinates": [26.628197561571266, -80.56565543421831]}}, {"type": "Feature", "properties": {"norad_id": 29870, "name": "FENGYUN 1C DEB", "group": "fengyun-1c-debris", "lat": -51.13990896953674, "lon": -32.018538583590015, "alt_km": 837.1896100121121, "timestamp": "2025-12-12T09:49:09.003293+00:00", "meta": {"OBJECT_NAME": "FENGYUN 1C DEB", "OBJECT_ID": "1999-025FQ", "EPOCH": "2025-12-11T20:54:12.828384", "MEAN_MOTION": 14.28980063, "ECCENTRICITY": 0.0119802, "INCLINATION": 98.4599, "RA_OF_ASC_NODE": 316.8149, "ARG_OF_PERICENTER": 194.9739, "MEAN_ANOMALY": 225.0869, "EPHEMERIS_TYPE": 0, "CLASSIFICATION_TYPE": "U", "NORAD_CAT_ID": 29870, "ELEMENT_SET_NO": 999, "REV_AT_EPOCH": 98581, "BSTAR": 8.702e-05, "MEAN_MOTION_DOT": 1.94e-06, "MEAN_MOTION_DDOT": 0}, "tle": {"line1": "1 29870U 99025FQ  25345.87098181  .00000194  00000+0  87020-4 0  9996", "line2": "2 29870  98.4599 316.8149 0119802 194.9739 225.0869 14.28980063985811"}}, "geometry": {"type": "Point", "coordinates": [-32.018538583590015, -51.13990896953674]}}, {"type": "Feature", "properties": {"norad_id": 29871, "name": "FENGYUN 1C DEB", "group": "fengyun-1c-debris", "lat": -60.366328799042606, "lon": 103.39433274835011, "alt_km": 785.3903445418782, "timestamp": "2025-12-12T09:49:09.003304+00:00", "meta": {"OBJECT_NAME": "FENGYUN 1C DEB", "OBJECT_ID": "1999-025FR", "EPOCH": "2025-12-11T21:22:48.811008", "MEAN_MOTION": 14.42630698, "ECCENTRICITY": 0.0058651, "INCLINATION": 98.9728, "RA_OF_ASC_NODE": 298.9753, "ARG_OF_PERICENTER": 109.9468, "MEAN_ANOMALY": 320.9531, "EPHEMERIS_TYPE": 0, "CLASSIFICATION_TYPE": "U", "NORAD_CAT_ID": 29871, "ELEMENT_SET_NO": 999, "REV_AT_EPOCH": 98689, "BSTAR": 0.0014512, "MEAN_MOTION_DOT": 4.877e-05, "MEAN_MOTION_DDOT": 0}, "tle": {"line1": "1 29871U 99025FR  25345.89084272  .00004877  00000+0  14512-2 0  9991", "line2": "2 29871  98.9728 298.9753 0058651 109.9468 320.9531 14.42630698986893"}}, "geometry": {"type": "Point", "coordinates": [103.39433274835011, -60.366328799042606]}}, {"type": "Feature", "properties": {"norad_id": 29872, "name": "FENGYUN 1C DEB", "group": "fengyun-1c-debris", "lat": 62.899515764273964, "lon": -14.284642473385968, "alt_km": 808.5944287661259, "timestamp": "2025-12-12T09:49:09.003314+00:00", "meta": {"OBJECT_NAME": "FENGYUN 1C DEB", "OBJECT_ID": "1999-025FS", "EPOCH": "2025-12-11T23:30:44.529120", "MEAN_MOTION": 14.38948137, "ECCENTRICITY": 0.0235327, "INCLINATION": 98.3462, "RA_OF_ASC_NODE": 1.9679, "ARG_OF_PERICENTER": 315.8828, "MEAN_ANOMALY": 42.3797, "EPHEMERIS_TYPE": 0, "CLASSIFICATION_TYPE": "U", "NORAD_CAT_ID": 29872, "ELEMENT_SET_NO": 999, "REV_AT_EPOCH": 98581, "BSTAR": 0.00096005, "MEAN_MOTION_DOT": 4.041e-05, "MEAN_MOTION_DDOT": 0}, "tle": {"line1": "1 29872U 99025FS  25345.97968205  .00004041  00000+0  96005-3 0  9999", "line2": "2 29872  98.3462   1.9679 0235327 315.8828  42.3797 14.38948137985812"}}, "geometry": {"type": "Point", "coordinates": [-14.284642473385968, 62.899515764273964]}}, {"type": "Feature", "properties": {"norad_id": 29873, "name": "FENGYUN 1C DEB", "group": "fengyun-1c-debris", "lat": -8.373936355480314, "lon": 25.07131674465174, "alt_km": 838.0994048346993, "timestamp": "2025-12-12T09:49:09.003325+00:00", "meta": {"OBJECT_NAME": "FENGYUN 1C DEB", "OBJECT_ID": "1999-025FT", "EPOCH": "2025-12-12T04:23:08.252160", "MEAN_MOTION": 13.98146637, "ECCENTRICITY": 0.00925, "INCLINATION": 99.4419, "RA_OF_ASC_NODE": 206.2421, "ARG_OF_PERICENTER": 200.504, "MEAN_ANOMALY": 289.1605, "EPHEMERIS_TYPE": 0, "CLASSIFICATION_TYPE": "U", "NORAD_CAT_ID": 29873, "ELEMENT_SET_NO": 999, "REV_AT_EPOCH": 96307, "BSTAR": 0.00019877, "MEAN_MOTION_DOT": 2.46e-06, "MEAN_MOTION_DDOT": 0}, "tle": {"line1": "1 29873U 99025FT  25346.18273440  .00000246  00000+0  19877-3 0  9999", "line2": "2 29873  99.4419 206.2421 0092500 200.5040 289.1605 13.98146637963075"}}, "geometry": {"type": "Point", "coordinates": [25.07131674465174, -8.373936355480314]}}, {"type": "Feature", "properties": {"norad_id": 29874, "name": "FENGYUN 1C DEB", "group": "fengyun-1c-debris", "lat": 10.962978829981408, "lon": -118.32671473138578, "alt_km": 725.8866220698201, "timestamp": "2025-12-12T09:49:09.003335+00:00", "meta": {"OBJECT_NAME": "FENGYUN 1C DEB", "OBJECT_ID": "1999-025FU", "EPOCH": "2025-12-11T04:16:59.243808", "MEAN_MOTION": 14.2876912, "ECCENTRICITY": 0.01052453, "INCLINATION": 98.3786, "RA_OF_ASC_NODE": 242.1268, "ARG_OF_PERICENTER": 355.3471, "MEAN_ANOMALY": 168.9864, "EPHEMERIS_TYPE": 0, "CLASSIFICATION_TYPE": "U", "NORAD_CAT_ID": 29874, "ELEMENT_SET_NO": 999, "REV_AT_EPOCH": 96825, "BSTAR": 0.0046590714, "MEAN_MOTION_DOT": 0.00012431, "MEAN_MOTION_DDOT": 0}, "tle": {"line1": "1 29874U 99025FU  25345.17846347  .00012431  00000+0  46591-2 0  9991", "line2": "2 29874  98.3786 242.1268 0105245 355.3471 168.9864 14.28769120968255"}}, "geometry": {"type": "Point", "coordinates": [-118.32671473138578, 10.962978829981408]}}, {"type": "Feature", "properties": {"norad_id": 29875, "name": "FENGYUN 1C DEB", "group": "fengyun-1c-debris", "lat": -40.70891325962288, "lon": -149.4616509024853, "alt_km": 870.3428537314321, "timestamp": "2025-12-12T09:49:09.003346+00:00", "meta": {"OBJECT_NAME": "FENGYUN 1C DEB", "OBJECT_ID": "1999-025FV", "EPOCH": "2025-12-12T02:11:23.766720", "MEAN_MOTION": 14.24878325, "ECCENTRICITY": 0.0083187, "INCLINATION": 98.4053, "RA_OF_ASC_NODE": 37.5427, "ARG_OF_PERICENTER": 65.176, "MEAN_ANOMALY": 325.9227, "EPHEMERIS_TYPE": 0, "CLASSIFICATION_TYPE": "U", "NORAD_CAT_ID": 29875, "ELEMENT_SET_NO": 999, "REV_AT_EPOCH": 98313, "BSTAR": 4.1862e-05, "MEAN_MOTION_DOT": 6e-07, "MEAN_MOTION_DDOT": 0}, "tle": {"line1": "1 29875U 99025FV  25346.09124730  .00000060  00000+0  41862-4 0  9992", "line2": "2 29875  98.4053  37.5427 0083187  65.1760 325.9227 14.24878325983130"}}, "geometry": {"type": "Point", "coordinates": [-149.4616509024853, -40.70891325962288]}}, {"type": "Feature", "properties": {"norad_id": 29876, "name": "FENGYUN 1C DEB", "group": "fengyun-1c-debris", "lat": 57.073848967090974, "lon": -129.91704908008325, "alt_km": 828.980802439889, "timestamp": "2025-12-12T09:49:09.003357+00:00", "meta": {"OBJECT_NAME": "FENGYUN 1C DEB", "OBJECT_ID": "1999-025FW", "EPOCH": "2025-12-12T02:37:25.751712", "MEAN_MOTION": 14.20296781, "ECCENTRICITY": 0.0061544, "INCLINATION": 98.3334, "RA_OF_ASC_NODE": 36.7187, "ARG_OF_PERICENTER": 19.226, "MEAN_ANOMALY": 9.9431, "EPHEMERIS_TYPE": 0, "CLASSIFICATION_TYPE": "U", "NORAD_CAT_ID": 29876, "ELEMENT_SET_NO": 999, "REV_AT_EPOCH": 97908, "BSTAR": 0.00020712, "MEAN_MOTION_DOT": 4.11e-06, "MEAN_MOTION_DDOT": 0}, "tle": {"line1": "1 29876U 99025FW  25346.10932583  .00000411  00000+0  20712-3 0  9998", "line2": "2 29876  98.3334  36.7187 0061544  19.2260   9.9431 14.20296781979085"}}, "geometry": {"type": "Point", "coordinates": [-129.91704908008325, 57.073848967090974]}}, {"type": "Feature", "properties": {"norad_id": 29877, "name": "FENGYUN 1C DEB", "group": "fengyun-1c-debris", "lat": -22.892323154650438, "lon": -4.634047503915655, "alt_km": 829.6939791880286, "timestamp": "2025-12-12T09:49:09.003367+00:00", "meta": {"OBJECT_NAME": "FENGYUN 1C DEB", "OBJECT_ID": "1999-025FX", "EPOCH": "2025-12-12T00:04:30.760320", "MEAN_MOTION": 14.24789214, "ECCENTRICITY": 0.0045822, "INCLINATION": 98.5372, "RA_OF_ASC_NODE": 351.3346, "ARG_OF_PERICENTER": 220.5707, "MEAN_ANOMALY": 194.6328, "EPHEMERIS_TYPE": 0, "CLASSIFICATION_TYPE": "U", "NORAD_CAT_ID": 29877, "ELEMENT_SET_NO": 999, "REV_AT_EPOCH": 97963, "BSTAR": 0.00069616, "MEAN_MOTION_DOT": 1.598e-05, "MEAN_MOTION_DDOT": 0}, "tle": {"line1": "1 29877U 99025FX  25346.00313380  .00001598  00000+0  69616-3 0  9999", "line2": "2 29877  98.5372 351.3346 0045822 220.5707 194.6328 14.24789214979637"}}, "geometry": {"type": "Point", "coordinates": [-4.634047503915655, -22.892323154650438]}}]}